NORAD_CAT_ID,OBJECT_NAME,OBJECT_TYPE,EPOCH,MEAN_MOTION,ECCENTRICITY,INCLINATION,RA_OF_ASC_NODE,ARG_OF_PERICENTER,MEAN_ANOMALY,BSTAR,MEAN_MOTION_DOT,MEAN_MOTION_DDOT,TLE_LINE0,TLE_LINE1,TLE_LINE2,SEMIMAJOR_AXIS,PERIOD,APOGEE,PERIGEE,DECAYED
55415.0,STARLINK-5618,PAYLOAD,2024-06-25 12:45:39,14.98331097,0.0003532,69.9993,212.9441,269.6774,90.3981,5.9611e-05,6.18e-06,0.0,0 STARLINK-5618,1 55415U 23014AA  24177.53170296  .00000618  00000-0  59611-4 0  9995,2 55415  69.9993 212.9441 0003532 269.6774  90.3981 14.98331097 77430,6950.189,96.107,574.509,569.6,0.0
55415.0,STARLINK-5618,PAYLOAD,2024-06-26 11:11:32,14.98329719,0.0003469,69.9996,210.5882,267.1777,92.8985,1.0555e-05,3.3e-07,0.0,0 STARLINK-5618,1 55415U 23014AA  24178.46634491  .00000033  00000-0  10555-4 0  9995,2 55415  69.9996 210.5882 0003469 267.1777  92.8985 14.98329719 78510,6950.194,96.107,574.47,569.648,0.0
55415.0,STARLINK-5618,PAYLOAD,2024-06-27 04:49:00,14.98332936,0.0003486,69.9997,208.7373,265.2703,94.8058,4.0163e-05,3.86e-06,0.0,0 STARLINK-5618,1 55415U 23014AA  24179.20070151  .00000386  00000-0  40163-4 0  9994,2 55415  69.9997 208.7373 0003486 265.2703  94.8058 14.98332936 77687,6950.184,96.107,574.472,569.626,0.0
55415.0,STARLINK-5618,PAYLOAD,2024-06-27 11:13:32,14.98333685,0.0003495,69.9996,208.0634,269.2288,90.847,5.0059e-05,5.04e-06,0.0,0 STARLINK-5618,1 55415U 23014AA  24179.46774073  .00000504  00000-0  50059-4 0  9993,2 55415  69.9996 208.0634 0003495 269.2288  90.8470 14.98333685 78666,6950.181,96.107,574.476,569.617,0.0
55415.0,STARLINK-5618,PAYLOAD,2024-06-28 04:51:01,14.98328606,0.0003516,69.9993,206.2118,269.1748,90.9008,3.8105e-05,3.62e-06,0.0,0 STARLINK-5618,1 55415U 23014AA  24180.20210413  .00000362  00000-0  38105-4 0  9990,2 55415  69.9993 206.2118 0003516 269.1748  90.9008 14.98328606 77837,6950.197,96.107,574.506,569.619,0.0
55415.0,STARLINK-5618,PAYLOAD,2024-06-28 11:15:34,14.98329648,0.0003552,69.9992,205.5384,269.689,90.3862,3.8963e-05,3.72e-06,0.0,0 STARLINK-5618,1 55415U 23014AA  24180.46914360  .00000372  00000-0  38963-4 0  9993,2 55415  69.9992 205.5384 0003552 269.6890  90.3862 14.98329648 78814,6950.194,96.107,574.528,569.59,0.0
55415.0,STARLINK-5618,PAYLOAD,2024-06-29 04:53:00,14.9836021,0.0003378,69.9993,203.6868,253.3559,106.7229,0.00032468,3.786e-05,0.0,0 STARLINK-5618,1 55415U 23014AA  24181.20347627  .00003786  00000-0  32468-3 0  9997,2 55415  69.9993 203.6868 0003378 253.3559 106.7229 14.98360210 77985,6950.099,96.105,574.312,569.617,0.0
55415.0,STARLINK-5618,PAYLOAD,2024-06-29 11:17:32,14.98363289,0.0003638,69.9992,203.0134,268.1953,91.879,0.00034422,4.02e-05,0.0,0 STARLINK-5618,1 55415U 23014AA  24181.47051013  .00004020  00000-0  34422-3 0  9991,2 55415  69.9992 203.0134 0003638 268.1953  91.8790 14.98363289 78960,6950.09,96.105,574.483,569.427,0.0
55415.0,STARLINK-5618,PAYLOAD,2024-06-29 19:18:13,14.98346044,0.0003527,69.9992,202.1714,274.0264,86.0492,0.00017506,1.997e-05,0.0,0 STARLINK-5618,1 55415U 23014AA  24181.80432138  .00001997  00000-0  17506-3 0  9993,2 55415  69.9992 202.1714 0003527 274.0264  86.0492 14.98346044 78079,6950.143,96.106,574.46,569.557,0.0
55415.0,STARLINK-5618,PAYLOAD,2024-06-30 04:55:03,14.98324464,0.00038,69.9985,201.1612,270.6323,89.4401,-7.4755e-05,-9.85e-06,0.0,0 STARLINK-5618,1 55415U 23014AA  24182.20489854 -.00000985  00000-0 -74755-4 0  9993,2 55415  69.9985 201.1612 0003800 270.6323  89.4401 14.98324464 78135,6950.21,96.107,574.716,569.434,0.0
55415.0,STARLINK-5618,PAYLOAD,2024-06-30 11:19:35,14.98325454,0.0003821,69.9991,200.4901,270.0537,90.0184,-5.8823e-05,-7.95e-06,0.0,0 STARLINK-5618,1 55415U 23014AA  24182.47193807 -.00000795  00000-0 -58823-4 0  9999,2 55415  69.9991 200.4901 0003821 270.0537  90.0184 14.98325454 79114,6950.207,96.107,574.728,569.416,0.0
55415.0,STARLINK-5618,PAYLOAD,2024-07-01 04:57:04,14.98340169,0.0003873,69.999,198.6383,267.7756,92.2959,-0.00032447,-3.964e-05,0.0,0 STARLINK-5618,1 55415U 23014AA  24183.20629734 -.00003964  00000-0 -32447-3 0  9998,2 55415  69.9990 198.6383 0003873 267.7756  92.2959 14.98340169 78289,6950.161,96.106,574.718,569.335,0.0
55415.0,STARLINK-5618,PAYLOAD,2024-07-01 11:21:36,14.98341016,0.0003776,69.9991,197.9643,269.4788,90.5939,-0.0002844,-3.486e-05,0.0,0 STARLINK-5618,1 55415U 23014AA  24183.47333441 -.00003486  00000-0 -28440-3 0  9991,2 55415  69.9991 197.9643 0003776 269.4788  90.5939 14.98341016 79267,6950.159,96.106,574.648,569.399,0.0
55415.0,STARLINK-5618,PAYLOAD,2024-07-01 17:46:08,14.98340624,0.0003786,69.9991,197.2904,271.0589,89.0136,-0.00027482,-3.372e-05,0.0,0 STARLINK-5618,1 55415U 23014AA  24183.74037264 -.00003372  00000-0 -27482-3 0  9994,2 55415  69.9991 197.2904 0003786 271.0589  89.0136 14.98340624 79300,6950.16,96.106,574.656,569.394,0.0
55415.0,STARLINK-5618,PAYLOAD,2024-07-02 04:59:05,14.98319785,0.000382,69.9991,196.1122,272.6939,87.3783,9.2697e-05,1.013e-05,0.0,0 STARLINK-5618,1 55415U 23014AA  24184.20769790  .00001013  00000-0  92697-4 0  9991,2 55415  69.9991 196.1122 0003820 272.6939  87.3783 14.98319785 78431,6950.224,96.108,574.744,569.434,0.0
55415.0,STARLINK-5618,PAYLOAD,2024-07-02 11:23:37,14.98321869,0.0003806,69.9991,195.439,272.5019,87.5704,0.00010487,1.158e-05,0.0,0 STARLINK-5618,1 55415U 23014AA  24184.47473790  .00001158  00000-0  10487-3 0  9998,2 55415  69.9991 195.4390 0003806 272.5019  87.5704 14.98321869 79412,6950.218,96.108,574.728,569.438,0.0
55415.0,STARLINK-5618,PAYLOAD,2024-07-03 05:01:06,14.98326125,0.0003818,69.9992,193.5876,271.6089,88.4633,8.6044e-05,9.34e-06,0.0,0 STARLINK-5618,1 55415U 23014AA  24185.20909847  .00000934  00000-0  86044-4 0  9991,2 55415  69.9992 193.5876 0003818 271.6089  88.4633 14.98326125 78589,6950.205,96.107,574.723,569.416,0.0
55415.0,STARLINK-5618,PAYLOAD,2024-07-03 17:50:10,14.98328327,0.0003816,69.9992,192.2411,271.1616,88.9106,8.306e-05,8.98e-06,0.0,0 STARLINK-5618,1 55415U 23014AA  24185.74317797  .00000898  00000-0  83060-4 0  9991,2 55415  69.9992 192.2411 0003816 271.1616  88.9106 14.98328327 79609,6950.198,96.107,574.715,569.411,0.0
55415.0,STARLINK-5618,PAYLOAD,2024-07-04 05:03:07,14.98328667,0.0003819,69.9992,191.0627,270.7094,89.3628,6.8417e-05,7.23e-06,0.0,0 STARLINK-5618,1 55415U 23014AA  24186.21049844  .00000723  00000-0  68417-4 0  9995,2 55415  69.9992 191.0627 0003819 270.7094  89.3628 14.98328667 78737,6950.197,96.107,574.716,569.408,0.0
55415.0,STARLINK-5618,PAYLOAD,2024-07-04 09:51:31,14.98330391,0.0003827,69.9992,190.5578,270.6688,89.4033,6.8654e-05,7.26e-06,0.0,0 STARLINK-5618,1 55415U 23014AA  24186.41077731  .00000726  00000-0  68654-4 0  9999,2 55415  69.9992 190.5578 0003827 270.6688  89.4033 14.98330391 79709,6950.192,96.107,574.717,569.397,0.0
55415.0,STARLINK-5618,PAYLOAD,2024-07-04 17:52:11,14.98329872,0.0003835,69.9992,189.716,270.6724,89.3996,4.7282e-05,4.71e-06,0.0,0 STARLINK-5618,1 55415U 23014AA  24186.74457792  .00000471  00000-0  47282-4 0  9995,2 55415  69.9992 189.7160 0003835 270.6724  89.3996 14.98329872 79750,6950.193,96.107,574.724,569.393,0.0
55415.0,STARLINK-5618,PAYLOAD,2024-07-05 05:05:08,14.98328537,0.0003809,69.9993,188.5379,270.2466,89.8257,1.8973e-06,-7e-07,0.0,0 STARLINK-5618,1 55415U 23014AA  24187.21190037 -.00000070  00000-0  18973-5 0  9996,2 55415  69.9993 188.5379 0003809 270.2466  89.8257 14.98328537 78885,6950.197,96.107,574.71,569.415,0.0
55415.0,STARLINK-5618,PAYLOAD,2024-07-05 09:53:32,14.98330153,0.0003793,69.9993,188.0329,270.1502,89.9222,1.8935e-05,1.33e-06,0.0,0 STARLINK-5618,1 55415U 23014AA  24187.41217888  .00000133  00000-0  18935-4 0  9998,2 55415  69.9993 188.0329 0003793 270.1502  89.9222 14.98330153 79855,6950.192,96.107,574.694,569.421,0.0
55415.0,STARLINK-5618,PAYLOAD,2024-07-05 17:54:12,14.98330499,0.0003784,69.9993,187.1912,270.095,89.9775,1.5574e-05,9.3e-07,0.0,0 STARLINK-5618,1 55415U 23014AA  24187.74597871  .00000093  00000-0  15574-4 0  9998,2 55415  69.9993 187.1912 0003784 270.0950  89.9775 14.98330499 79901,6950.191,96.107,574.686,569.426,0.0
55415.0,STARLINK-5618,PAYLOAD,2024-07-06 05:07:08,14.98330995,0.0003793,69.9993,186.013,269.8615,90.2109,2.7714e-05,2.38e-06,0.0,0 STARLINK-5618,1 55415U 23014AA  24188.21329782  .00000238  00000-0  27714-4 0  9995,2 55415  69.9993 186.0130 0003793 269.8615  90.2109 14.98330995 79036,6950.19,96.107,574.691,569.419,0.0
55415.0,STARLINK-5618,PAYLOAD,2024-07-06 09:55:33,14.9833268,0.0003779,69.9993,185.5081,269.8821,90.1905,3.2879e-05,2.99e-06,0.0,0 STARLINK-5618,1 55415U 23014AA  24188.41357640  .00000299  00000-0  32879-4 0  9996,2 55415  69.9993 185.5081 0003779 269.8821  90.1905 14.98332680 80003,6950.185,96.107,574.676,569.423,0.0
55415.0,STARLINK-5618,PAYLOAD,2024-07-07 05:09:10,14.98328225,0.0003746,69.9994,183.4883,269.7608,90.3122,2.8193e-05,2.43e-06,0.0,0 STARLINK-5618,1 55415U 23014AA  24189.21469915  .00000243  00000-0  28193-4 0  9997,2 55415  69.9994 183.4883 0003746 269.7608  90.3122 14.98328225 79187,6950.198,96.107,574.667,569.46,0.0
55415.0,STARLINK-5618,PAYLOAD,2024-07-07 09:57:34,14.98328578,0.0003752,69.9994,182.9834,269.8176,90.2553,2.9801e-05,2.62e-06,0.0,0 STARLINK-5618,1 55415U 23014AA  24189.41497904  .00000262  00000-0  29801-4 0  9996,2 55415  69.9994 182.9834 0003752 269.8176  90.2553 14.98328578 80152,6950.197,96.107,574.67,569.455,0.0
55415.0,STARLINK-5618,PAYLOAD,2024-07-08 08:23:26,14.98331715,0.0003694,69.9996,180.6273,269.4398,90.6338,3.2311e-05,2.92e-06,0.0,0 STARLINK-5618,1 55415U 23014AA  24190.34961678  .00000292  00000-0  32311-4 0  9997,2 55415  69.9996 180.6273 0003694 269.4398  90.6338 14.98331715 79355,6950.188,96.107,574.62,569.485,0.0
55415.0,STARLINK-5618,PAYLOAD,2024-07-08 16:24:07,14.98331883,0.0003692,69.9996,179.7857,269.4778,90.5958,2.8346e-05,2.45e-06,0.0,0 STARLINK-5618,1 55415U 23014AA  24190.68341654  .00000245  00000-0  28346-4 0  9991,2 55415  69.9996 179.7857 0003692 269.4778  90.5958 14.98331883 80346,6950.187,96.107,574.618,569.486,0.0
